{
  "type": "FeatureCollection",
  "features": [
    {
      "type": "Feature",
      "properties": {
        "norad_id": 36036,
        "name": "SMOS",
        "group": "resource",
        "lat": -74.0476888869291,
        "lon": -155.37463456831745,
        "alt_km": 767.3744471502896,
        "timestamp": "2025-12-14T07:33:19.134662+00:00",
        "meta_object_name": "SMOS",
        "meta_object_id": "2009-059A",
        "meta_epoch": "2025-12-13T11:53:40.754976",
        "meta_mean_motion": 14.39742268,
        "meta_eccentricity": 0.00010996,
        "meta_inclination": 98.438,
        "meta_ra_of_asc_node": 172.5329,
        "meta_arg_of_pericenter": 84.3394,
        "meta_mean_anomaly": 275.7919,
        "meta_ephemeris_type": 0,
        "meta_classification_type": "U",
        "meta_norad_cat_id": 36036,
        "meta_element_set_no": 999,
        "meta_rev_at_epoch": 84673,
        "meta_bstar": 0.00020408765,
        "meta_mean_motion_dot": 5.96e-06,
        "meta_mean_motion_ddot": 0,
        "tle_line1": "1 36036U 09059A   25347.49561059  .00000596  00000+0  20409-3 0  9998",
        "tle_line2": "2 36036  98.4380 172.5329 0001099  84.3394 275.7919 14.39742268846735"
      },
      "geometry": {
        "type": "Point",
        "coordinates": [
          -155.37463456831745,
          -74.0476888869291
        ]
      }
    },
    {
      "type": "Feature",
      "properties": {
        "norad_id": 36110,
        "name": "YAOGAN-7",
        "group": "resource",
        "lat": -35.853711749307244,
        "lon": -124.07878663863296,
        "alt_km": 631.7640290786676,
        "timestamp": "2025-12-14T07:33:19.134673+00:00",
        "meta_object_name": "YAOGAN-7",
        "meta_object_id": "2009-069A",
        "meta_epoch": "2025-12-13T15:28:04.382688",
        "meta_mean_motion": 14.7773432,
        "meta_eccentricity": 0.00233703,
        "meta_inclination": 98.0299,
        "meta_ra_of_asc_node": 229.3983,
        "meta_arg_of_pericenter": 278.217,
        "meta_mean_anomaly": 81.639,
        "meta_ephemeris_type": 0,
        "meta_classification_type": "U",
        "meta_norad_cat_id": 36110,
        "meta_element_set_no": 999,
        "meta_rev_at_epoch": 86222,
        "meta_bstar": 0.00014262467,
        "meta_mean_motion_dot": 9.73e-06,
        "meta_mean_motion_ddot": 0,
        "tle_line1": "1 36110U 09069A   25347.64449517  .00000973  00000+0  14262-3 0  9992",
        "tle_line2": "2 36110  98.0299 229.3983 0023370 278.2170  81.6390 14.77734320862223"
      },
      "geometry": {
        "type": "Point",
        "coordinates": [
          -124.07878663863296,
          -35.853711749307244
        ]
      }
    },
    {
      "type": "Feature",
      "properties": {
        "norad_id": 36605,
        "name": "TANDEM-X",
        "group": "resource",
        "lat": 80.28807856269351,
        "lon": -56.15731838480542,
        "alt_km": 499.65972987339956,
        "timestamp": "2025-12-14T07:33:19.134684+00:00",
        "meta_object_name": "TANDEM-X",
        "meta_object_id": "2010-030A",
        "meta_epoch": "2025-12-13T13:47:56.200128",
        "meta_mean_motion": 15.19152153,
        "meta_eccentricity": 0.00019496,
        "meta_inclination": 97.4458,
        "meta_ra_of_asc_node": 352.9445,
        "meta_arg_of_pericenter": 84.6239,
        "meta_mean_anomaly": 275.5218,
        "meta_ephemeris_type": 0,
        "meta_classification_type": "U",
        "meta_norad_cat_id": 36605,
        "meta_element_set_no": 999,
        "meta_rev_at_epoch": 85846,
        "meta_bstar": 0.0001209332,
        "meta_mean_motion_dot": 2.473e-05,
        "meta_mean_motion_ddot": 0,
        "tle_line1": "1 36605U 10030A   25347.57495602  .00002473  00000+0  12093-3 0  9996",
        "tle_line2": "2 36605  97.4458 352.9445 0001949  84.6239 275.5218 15.19152153858460"
      },
      "geometry": {
        "type": "Point",
        "coordinates": [
          -56.15731838480542,
          80.28807856269351
        ]
      }
    },
    {
      "type": "Feature",
      "properties": {
        "norad_id": 36795,
        "name": "CARTOSAT-2B",
        "group": "resource",
        "lat": -74.5983159051113,
        "lon": -172.4841225354464,
        "alt_km": 649.7832772537568,
        "timestamp": "2025-12-14T07:33:19.134695+00:00",
        "meta_object_name": "CARTOSAT-2B",
        "meta_object_id": "2010-035A",
        "meta_epoch": "2025-12-13T15:46:57.572256",
        "meta_mean_motion": 14.78728744,
        "meta_eccentricity": 0.00130675,
        "meta_inclination": 97.7853,
        "meta_ra_of_asc_node": 36.6581,
        "meta_arg_of_pericenter": 73.6224,
        "meta_mean_anomaly": 286.6423,
        "meta_ephemeris_type": 0,
        "meta_classification_type": "U",
        "meta_norad_cat_id": 36795,
        "meta_element_set_no": 999,
        "meta_rev_at_epoch": 83243,
        "meta_bstar": 0.00025753232,
        "meta_mean_motion_dot": 1.843e-05,
        "meta_mean_motion_ddot": 0,
        "tle_line1": "1 36795U 10035A   25347.65761079  .00001843  00000+0  25753-3 0  9991",
        "tle_line2": "2 36795  97.7853  36.6581 0013067  73.6224 286.6423 14.78728744832434"
      },
      "geometry": {
        "type": "Point",
        "coordinates": [
          -172.4841225354464,
          -74.5983159051113
        ]
      }
    },
    {
      "type": "Feature",
      "properties": {
        "norad_id": 36834,
        "name": "YAOGAN-10",
        "group": "resource",
        "lat": 9.932378256822856,
        "lon": 6.728171341051825,
        "alt_km": 616.0275439737916,
        "timestamp": "2025-12-14T07:33:19.134706+00:00",
        "meta_object_name": "YAOGAN-10",
        "meta_object_id": "2010-038A",
        "meta_epoch": "2025-12-13T15:58:02.887680",
        "meta_mean_motion": 14.84613482,
        "meta_eccentricity": 0.00014906,
        "meta_inclination": 97.9148,
        "meta_ra_of_asc_node": 7.4794,
        "meta_arg_of_pericenter": 79.4738,
        "meta_mean_anomaly": 61.5171,
        "meta_ephemeris_type": 0,
        "meta_classification_type": "U",
        "meta_norad_cat_id": 36834,
        "meta_element_set_no": 999,
        "meta_rev_at_epoch": 82967,
        "meta_bstar": 0.00031876937,
        "meta_mean_motion_dot": 2.64e-05,
        "meta_mean_motion_ddot": 0,
        "tle_line1": "1 36834U 10038A   25347.66531120  .00002640  00000+0  31877-3 0  9991",
        "tle_line2": "2 36834  97.9148   7.4794 0001490  79.4738  61.5171 14.84613482829671"
      },
      "geometry": {
        "type": "Point",
        "coordinates": [
          6.728171341051825,
          9.932378256822856
        ]
      }
    },
    {
      "type": "Feature",
      "properties": {
        "norad_id": 37216,
        "name": "COSMO-SKYMED 4",
        "group": "resource",
        "lat": -77.75320514045957,
        "lon": -150.73443885879087,
        "alt_km": 630.8525750508261,
        "timestamp": "2025-12-14T07:33:19.134716+00:00",
        "meta_object_name": "COSMO-SKYMED 4",
        "meta_object_id": "2010-060A",
        "meta_epoch": "2025-12-13T15:42:57.415680",
        "meta_mean_motion": 14.8214548,
        "meta_eccentricity": 0.00014216,
        "meta_inclination": 97.8807,
        "meta_ra_of_asc_node": 168.9642,
        "meta_arg_of_pericenter": 85.4311,
        "meta_mean_anomaly": 274.7065,
        "meta_ephemeris_type": 0,
        "meta_classification_type": "U",
        "meta_norad_cat_id": 37216,
        "meta_element_set_no": 999,
        "meta_rev_at_epoch": 81708,
        "meta_bstar": 0.00011371886,
        "meta_mean_motion_dot": 8.53e-06,
        "meta_mean_motion_ddot": 0,
        "tle_line1": "1 37216U 10060A   25347.65483120  .00000853  00000+0  11372-3 0  9998",
        "tle_line2": "2 37216  97.8807 168.9642 0001421  85.4311 274.7065 14.82145480817088"
      },
      "geometry": {
        "type": "Point",
        "coordinates": [
          -150.73443885879087,
          -77.75320514045957
        ]
      }
    },
    {
      "type": "Feature",
      "properties": {
        "norad_id": 37387,
        "name": "RESOURCESAT-2",
        "group": "resource",
        "lat": -77.82888202362365,
        "lon": -173.96544436942432,
        "alt_km": 830.6250107468086,
        "timestamp": "2025-12-14T07:33:19.134727+00:00",
        "meta_object_name": "RESOURCESAT-2",
        "meta_object_id": "2011-015A",
        "meta_epoch": "2025-12-13T15:07:33.465216",
        "meta_mean_motion": 14.21597725,
        "meta_eccentricity": 0.0006396,
        "meta_inclination": 98.7878,
        "meta_ra_of_asc_node": 51.1781,
        "meta_arg_of_pericenter": 40.385,
        "meta_mean_anomaly": 319.7801,
        "meta_ephemeris_type": 0,
        "meta_classification_type": "U",
        "meta_norad_cat_id": 37387,
        "meta_element_set_no": 999,
        "meta_rev_at_epoch": 75981,
        "meta_bstar": 0.00012552291,
        "meta_mean_motion_dot": 2.31e-06,
        "meta_mean_motion_ddot": 0,
        "tle_line1": "1 37387U 11015A   25347.63024844  .00000231  00000+0  12552-3 0  9991",
        "tle_line2": "2 37387  98.7878  51.1781 0006396  40.3850 319.7801 14.21597725759816"
      },
      "geometry": {
        "type": "Point",
        "coordinates": [
          -173.96544436942432,
          -77.82888202362365
        ]
      }
    }
  ]
}